{
    "links": {
        "self": "http://www.neowsapp.com/rest/v1/neo/3653344?api_key=iIulBulltgU6a56xZRHN4H3l9WmuAYTsLGpBGhQ2"
    },
    "id": "3653344",
    "neo_reference_id": "3653344",
    "name": "(2013 UJ10)",
    "designation": "2013 UJ10",
    "nasa_jpl_url": "http://ssd.jpl.nasa.gov/sbdb.cgi?sstr=3653344",
    "absolute_magnitude_h": 25.3,
    "estimated_diameter": {
        "kilometers": {
            "estimated_diameter_min": 0.0231502122,
            "estimated_diameter_max": 0.0517654482
        },
        "meters": {
            "estimated_diameter_min": 23.150212221,
            "estimated_diameter_max": 51.7654482198
        },
        "miles": {
            "estimated_diameter_min": 0.0143848705,
            "estimated_diameter_max": 0.0321655483
        },
        "feet": {
            "estimated_diameter_min": 75.9521422633,
            "estimated_diameter_max": 169.8341531374
        }
    },
    "is_potentially_hazardous_asteroid": false,
    "close_approach_data": [
        {
            "close_approach_date": "2013-10-15",
            "close_approach_date_full": "2013-Oct-15 12:45",
            "epoch_date_close_approach": 1381841100000,
            "relative_velocity": {
                "kilometers_per_second": "7.3690180251",
                "kilometers_per_hour": "26528.4648903378",
                "miles_per_hour": "16483.7564203324"
            },
            "miss_distance": {
                "astronomical": "0.0786949609",
                "lunar": "30.6123397901",
                "kilometers": "11772598.530373283",
                "miles": "7315153.5185979854"
            },
            "orbiting_body": "Earth"
        }
    ],
    "orbital_data": {
        "orbit_id": "5",
        "orbit_determination_date": "2017-04-06 08:43:54",
        "first_observation_date": "2013-10-31",
        "last_observation_date": "2013-11-08",
        "data_arc_in_days": 8,
        "observations_used": 20,
        "orbit_uncertainty": "9",
        "minimum_orbit_intersection": ".0729886",
        "jupiter_tisserand_invariant": "3.161",
        "epoch_osculation": "2456598.5",
        "eccentricity": ".5873671390130707",
        "semi_major_axis": "2.569001734339073",
        "inclination": "3.543964399907321",
        "ascending_node_longitude": "233.7288116499821",
        "orbital_period": "1503.99025768552",
        "perihelion_distance": "1.060054535520715",
        "perihelion_argument": "139.0360151389877",
        "aphelion_distance": "4.077948933157431",
        "perihelion_time": "2456573.938605098341",
        "mean_anomaly": "5.879095372734851",
        "mean_motion": ".2393632526277141",
        "equinox": "J2000",
        "orbit_class": {
            "orbit_class_type": "AMO",
            "orbit_class_description": "Near-Earth asteroid orbits similar to that of 1221 Amor",
            "orbit_class_range": "1.017 AU < q (perihelion) < 1.3 AU"
        }
    },
    "is_sentry_object": false
}